#cP2005  4 27 00 00 00.00000000    8638 U+u   IGS00 FIT DEOS
## 1320 259200.00000000    10.00000000 53487 0.0000000000000
+    1   L06  0  0  0  0  0  0  0  0  0  0  0  0  0  0  0  0
+          0  0  0  0  0  0  0  0  0  0  0  0  0  0  0  0  0
+          0  0  0  0  0  0  0  0  0  0  0  0  0  0  0  0  0
+          0  0  0  0  0  0  0  0  0  0  0  0  0  0  0  0  0
+          0  0  0  0  0  0  0  0  0  0  0  0  0  0  0  0  0
++         0  0  0  0  0  0  0  0  0  0  0  0  0  0  0  0  0
++         0  0  0  0  0  0  0  0  0  0  0  0  0  0  0  0  0
++         0  0  0  0  0  0  0  0  0  0  0  0  0  0  0  0  0
++         0  0  0  0  0  0  0  0  0  0  0  0  0  0  0  0  0
++         0  0  0  0  0  0  0  0  0  0  0  0  0  0  0  0  0
%c cc cc ccc ccc cccc cccc cccc cccc ccccc ccccc ccccc ccccc
%c cc cc ccc ccc cccc cccc cccc cccc ccccc ccccc ccccc ccccc
%f   .0000000   .000000000   .00000000000   .000000000000000
%f   .0000000   .000000000   .00000000000   .000000000000000
%i    0    0    0    0      0      0      0      0         0
%i    0    0    0    0      0      0      0      0         0
/* NOTE: CCCCCCCCCCCCCCCCCCCCCCCCCCCCCCCCCCCCCCCCCCCCCCCCCCC
/* CCCCCCCCCCCCCCCCCCCCCCCCCCCCCCCCCCCCCCCCCCCCCCCCCCCCCCCCC
/* CCCCCCCCCCCCCCCCCCCCCCCCCCCCCCCCCCCCCCCCCCCCCCCCCCCCCCCCC
/* CCCCCCCCCCCCCCCCCCCCCCCCCCCCCCCCCCCCCCCCCCCCCCCCCCCCCCCCC
*  2005 04 27 22 44 00.00000000
PL06  -5627.477638   -338.170530  -3700.116527 999999.999999
*  2005 04 27 22 44 10.00000000
PL06  -5585.111858   -335.953310  -3764.038084 999999.999999
*  2005 04 27 22 44 20.00000000
PL06  -5542.020452   -333.754943  -3827.469342 999999.999999
*  2005 04 27 22 44 30.00000000
PL06  -5498.209092   -331.576772  -3890.402087 999999.999999
*  2005 04 27 22 44 40.00000000
PL06  -5453.683543   -329.420129  -3952.828169 999999.999999
*  2005 04 27 22 44 50.00000000
PL06  -5408.449666   -327.286336  -4014.739511 999999.999999
*  2005 04 27 22 45 00.00000000
PL06  -5362.513411   -325.176700  -4076.128099 999999.999999
*  2005 04 27 22 45 10.00000000
PL06  -5315.880822   -323.092519  -4136.985993 999999.999999
*  2005 04 27 22 45 20.00000000
PL06  -5268.558033   -321.035077  -4197.305321 999999.999999
*  2005 04 27 22 45 30.00000000
PL06  -5220.551270   -319.005646  -4257.078284 999999.999999
*  2005 04 27 22 45 40.00000000
PL06  -5171.866845   -317.005486  -4316.297156 999999.999999
*  2005 04 27 22 45 50.00000000
PL06  -5122.511159   -315.035842  -4374.954283 999999.999999
*  2005 04 27 22 46 00.00000000
PL06  -5072.490704   -313.097949  -4433.042087 999999.999999
*  2005 04 27 22 46 10.00000000
PL06  -5021.812052   -311.193024  -4490.553064 999999.999999
*  2005 04 27 22 46 20.00000000
PL06  -4970.481867   -309.322274  -4547.479789 999999.999999
*  2005 04 27 22 46 30.00000000
PL06  -4918.506892   -307.486890  -4603.814912 999999.999999
*  2005 04 27 22 46 40.00000000
PL06  -4865.893959   -305.688048  -4659.551162 999999.999999
*  2005 04 27 22 46 50.00000000
PL06  -4812.649980   -303.926910  -4714.681348 999999.999999
*  2005 04 27 22 47 00.00000000
PL06  -4758.781949   -302.204624  -4769.198358 999999.999999
*  2005 04 27 22 47 10.00000000
PL06  -4704.296941   -300.522320  -4823.095164 999999.999999
*  2005 04 27 22 47 20.00000000
PL06  -4649.202111   -298.881114  -4876.364817 999999.999999
*  2005 04 27 22 47 30.00000000
PL06  -4593.504691   -297.282108  -4929.000452 999999.999999
*  2005 04 27 22 47 40.00000000
PL06  -4537.211993   -295.726384  -4980.995289 999999.999999
*  2005 04 27 22 47 50.00000000
PL06  -4480.331404   -294.215011  -5032.342631 999999.999999
*  2005 04 27 22 48 00.00000000
PL06  -4422.870385   -292.749039  -5083.035864 999999.999999
*  2005 04 27 22 48 10.00000000
PL06  -4364.836475   -291.329503  -5133.068463 999999.999999
*  2005 04 27 22 48 20.00000000
PL06  -4306.237284   -289.957419  -5182.433988 999999.999999
*  2005 04 27 22 48 30.00000000
PL06  -4247.080497   -288.633788  -5231.126086 999999.999999
*  2005 04 27 22 48 40.00000000
PL06  -4187.373868   -287.359592  -5279.138494 999999.999999
*  2005 04 27 22 48 50.00000000
PL06  -4127.125223   -286.135796  -5326.465038 999999.999999
*  2005 04 27 22 49 00.00000000
PL06  -4066.342458   -284.963345  -5373.099630 999999.999999
*  2005 04 27 22 49 10.00000000
PL06  -4005.033535   -283.843169  -5419.036278 999999.999999
*  2005 04 27 22 49 20.00000000
PL06  -3943.206486   -282.776176  -5464.269077 999999.999999
*  2005 04 27 22 49 30.00000000
PL06  -3880.869408   -281.763259  -5508.792216 999999.999999
*  2005 04 27 22 49 40.00000000
PL06  -3818.030462   -280.805288  -5552.599975 999999.999999
*  2005 04 27 22 49 50.00000000
PL06  -3754.697875   -279.903118  -5595.686727 999999.999999
*  2005 04 27 22 50 00.00000000
PL06  -3690.879936   -279.057580  -5638.046942 999999.999999
*  2005 04 27 22 50 10.00000000
PL06  -3626.584995   -278.269491  -5679.675181 999999.999999
*  2005 04 27 22 50 20.00000000
PL06  -3561.821465   -277.539643  -5720.566101 999999.999999
*  2005 04 27 22 50 30.00000000
PL06  -3496.597816   -276.868811  -5760.714456 999999.999999
*  2005 04 27 22 50 40.00000000
PL06  -3430.922578   -276.257750  -5800.115095 999999.999999
*  2005 04 27 22 50 50.00000000
PL06  -3364.804338   -275.707194  -5838.762964 999999.999999
*  2005 04 27 22 51 00.00000000
PL06  -3298.251740   -275.217856  -5876.653107 999999.999999
*  2005 04 27 22 51 10.00000000
PL06  -3231.273482   -274.790430  -5913.780666 999999.999999
*  2005 04 27 22 51 20.00000000
PL06  -3163.878317   -274.425587  -5950.140881 999999.999999
*  2005 04 27 22 51 30.00000000
PL06  -3096.075050   -274.123979  -5985.729093 999999.999999
*  2005 04 27 22 51 40.00000000
PL06  -3027.872539   -273.886236  -6020.540741 999999.999999
*  2005 04 27 22 51 50.00000000
PL06  -2959.279692   -273.712966  -6054.571366 999999.999999
*  2005 04 27 22 52 00.00000000
PL06  -2890.305468   -273.604758  -6087.816607 999999.999999
*  2005 04 27 22 52 10.00000000
PL06  -2820.958871   -273.562177  -6120.272209 999999.999999
*  2005 04 27 22 52 20.00000000
PL06  -2751.248955   -273.585767  -6151.934016 999999.999999
*  2005 04 27 22 52 30.00000000
PL06  -2681.184819   -273.676051  -6182.797975 999999.999999
*  2005 04 27 22 52 40.00000000
PL06  -2610.775606   -273.833530  -6212.860137 999999.999999
*  2005 04 27 22 52 50.00000000
PL06  -2540.030503   -274.058681  -6242.116656 999999.999999
*  2005 04 27 22 53 00.00000000
PL06  -2468.958738   -274.351961  -6270.563789 999999.999999
*  2005 04 27 22 53 10.00000000
PL06  -2397.569582   -274.713804  -6298.197900 999999.999999
*  2005 04 27 22 53 20.00000000
PL06  -2325.872342   -275.144622  -6325.015453 999999.999999
*  2005 04 27 22 53 30.00000000
PL06  -2253.876368   -275.644802  -6351.013021 999999.999999
*  2005 04 27 22 53 40.00000000
PL06  -2181.591043   -276.214711  -6376.187280 999999.999999
*  2005 04 27 22 53 50.00000000
PL06  -2109.025788   -276.854692  -6400.535012 999999.999999
*  2005 04 27 22 54 00.00000000
PL06  -2036.190061   -277.565067  -6424.053105 999999.999999
*  2005 04 27 22 54 10.00000000
PL06  -1963.093350   -278.346131  -6446.738553 999999.999999
*  2005 04 27 22 54 20.00000000
PL06  -1889.745178   -279.198162  -6468.588458 999999.999999
*  2005 04 27 22 54 30.00000000
PL06  -1816.155098   -280.121409  -6489.600027 999999.999999
*  2005 04 27 22 54 40.00000000
PL06  -1742.332695   -281.116101  -6509.770576 999999.999999
*  2005 04 27 22 54 50.00000000
PL06  -1668.287581   -282.182445  -6529.097526 999999.999999
*  2005 04 27 22 55 00.00000000
PL06  -1594.029397   -283.320621  -6547.578409 999999.999999
*  2005 04 27 22 55 10.00000000
PL06  -1519.567809   -284.530789  -6565.210864 999999.999999
*  2005 04 27 22 55 20.00000000
PL06  -1444.912511   -285.813084  -6581.992637 999999.999999
*  2005 04 27 22 55 30.00000000
PL06  -1370.073219   -287.167617  -6597.921584 999999.999999
*  2005 04 27 22 55 40.00000000
PL06  -1295.059674   -288.594478  -6612.995671 999999.999999
*  2005 04 27 22 55 50.00000000
PL06  -1219.881635   -290.093730  -6627.212972 999999.999999
*  2005 04 27 22 56 00.00000000
PL06  -1144.548886   -291.665416  -6640.571671 999999.999999
*  2005 04 27 22 56 10.00000000
PL06  -1069.071226   -293.309551  -6653.070061 999999.999999
*  2005 04 27 22 56 20.00000000
PL06   -993.458475   -295.026131  -6664.706547 999999.999999
*  2005 04 27 22 56 30.00000000
PL06   -917.720468   -296.815123  -6675.479642 999999.999999
*  2005 04 27 22 56 40.00000000
PL06   -841.867055   -298.676476  -6685.387969 999999.999999
*  2005 04 27 22 56 50.00000000
PL06   -765.908100   -300.610110  -6694.430264 999999.999999
*  2005 04 27 22 57 00.00000000
PL06   -689.853482   -302.615925  -6702.605371 999999.999999
*  2005 04 27 22 57 10.00000000
PL06   -613.713089   -304.693794  -6709.912244 999999.999999
*  2005 04 27 22 57 20.00000000
PL06   -537.496821   -306.843569  -6716.349950 999999.999999
*  2005 04 27 22 57 30.00000000
PL06   -461.214586   -309.065077  -6721.917665 999999.999999
*  2005 04 27 22 57 40.00000000
PL06   -384.876303   -311.358122  -6726.614676 999999.999999
*  2005 04 27 22 57 50.00000000
PL06   -308.491894   -313.722483  -6730.440383 999999.999999
*  2005 04 27 22 58 00.00000000
PL06   -232.071290   -316.157917  -6733.394295 999999.999999
*  2005 04 27 22 58 10.00000000
PL06   -155.624424   -318.664155  -6735.476034 999999.999999
*  2005 04 27 22 58 20.00000000
PL06    -79.161233   -321.240908  -6736.685334 999999.999999
*  2005 04 27 22 58 30.00000000
PL06     -2.691655   -323.887860  -6737.022038 999999.999999
*  2005 04 27 22 58 40.00000000
PL06     73.774371   -326.604672  -6736.486103 999999.999999
*  2005 04 27 22 58 50.00000000
PL06    150.226909   -329.390983  -6735.077597 999999.999999
*  2005 04 27 22 59 00.00000000
PL06    226.656025   -332.246407  -6732.796699 999999.999999
*  2005 04 27 22 59 10.00000000
PL06    303.051786   -335.170533  -6729.643699 999999.999999
*  2005 04 27 22 59 20.00000000
PL06    379.404266   -338.162931  -6725.618997 999999.999999
EOF
